ID,Address,Suburb,Price,Type,Date,Rooms,Bathroom,Car,Landsize,Age,Lattitude,Longtitude,train_station_id,distance_to_train_stat,travel_min_to_CBD,over_priced?,crime_A_average,crime_B_average,crime_C_average
ID182336904,35 Henry St,KENSINGTON,1037000.0,h,3/09/2016,3,1.0,1.0,188.0,109.0,-37.7953,144.9275,20041,,17.0,0,271.666666667,771.666666667,74.0
ID961693656,36 Southampton St,FOOTSCRAY,910000.0,h,17/06/2017,2,1.0,0.0,312.0,131.0,-37.79592,144.88595,20023,,19.4,0,2047.666666667,9171.0,742.333333
ID510235052,7 Motherwell St,SOUTH YARRA,2667000.0,h,27/11/2016,4,3.0,2.0,446.0,119.0,-37.8454,144.9989,19947,,16.2143,0,1100.666666667,3636.333333333,457.333333
ID878284364,4 Clairmont Av,BENTLEIGH,2210000.0,h,16/09/2017,4,3.0,2.0,557.0,79.0,-37.92098,145.02422,19938,,36.8462,0,959.0,4476.666666667,324.0
ID604850259,1/110 Railway Pl,WEST MELBOURNE,660000.0,u,27/05/2017,2,1.0,1.0,0.0,26.0,-37.80848,144.9437,19973,,6.25,1,647.0,2861.333333333,222.666667
ID808163397,2 Homebush Cr,HAWTHORN EAST,2710000.0,h,9/09/2017,3,1.0,3.0,615.0,49.0,-37.82425,145.05552,19853,,19.1562,0,1253.666666667,7401.333333333,484.666667
ID463305610,1 Shiers St,ALPHINGTON,1800000.0,h,24/06/2017,4,1.0,2.0,605.0,89.0,-37.77474,145.03011999999995,19931,,24.0,0,1214.666666667,5603.666666667,375.333333
ID929706674,6 Rose St,ALTONA,950000.0,h,22/07/2017,3,1.0,1.0,399.0,49.0,-37.87115,144.8189,19925,,28.5,0,2494.666666667,11307.0,1410.0
ID160793498,5 Faoro Ct,KEYSBOROUGH,725000.0,h,29/07/2017,3,2.0,4.0,553.0,39.0,-37.99432,145.16143,19889,,46.0,0,1360.666666667,6408.666666667,691.666667
ID121444269,12 Bridge St,WERRIBEE,678000.0,h,29/07/2017,2,1.0,1.0,487.0,12.0,-37.90379,144.66165,19921,,35.1429,1,98.666666667,190.666666667,19.0
ID459942327,44 Devereaux St,OAK PARK,706000.0,h,7/11/2016,3,1.0,0.0,715.0,59.0,-37.7143,144.9092,20033,,34.0,0,136.333333333,302.666666667,42.0
ID706001520,35 Angelique Gr,ALBANVALE,506000.0,h,19/08/2017,3,1.0,2.0,544.0,39.0,-37.74965,144.77008999999995,20002,,31.375,0,119.333333333,452.333333333,22.0
ID671454052,117 Pearson St,BRUNSWICK WEST,901000.0,h,23/04/2016,3,1.0,4.0,357.0,89.0,-37.762,144.9497,19967,,27.3333,0,958.666666667,5673.0,628.0
ID190853091,7/226 Glenlyon Rd,BRUNSWICK EAST,320000.0,u,19/08/2017,1,1.0,1.0,682.0,39.0,-37.7734,144.97686000000004,20017,,19.3,0,817.666666667,1779.666666667,181.0
ID708771582,16 Castlereagh Pl,WATSONIA,800000.0,h,18/06/2016,3,2.0,2.0,595.0,19.0,-37.7023,145.0775,19984,,37.6667,0,584.333333333,2731.666666667,211.666667
ID952967004,33 Power St,BALWYN,1700000.0,h,30/07/2016,4,1.0,1.0,672.0,84.0,-37.8099,145.0792,19893,,23.7692,0,925.666666667,4701.333333333,308.666667
ID551451715,47 Wood St,AVONDALE HEIGHTS,850000.0,h,8/04/2017,4,1.0,2.0,697.0,11.0,-37.7678,144.8568,20004,,26.375,0,1672.666666667,10063.666666667,646.333333
ID469379778,2 Burge Cr,HOPPERS CROSSING,650000.0,h,22/07/2017,4,2.0,2.0,680.0,34.0,-37.86821,144.69566,19922,,32.1429,0,512.0,1119.666666667,175.666667
ID912284871,49 Service St,HAMPTON,1740000.0,h,27/11/2016,4,3.0,2.0,414.0,69.0,-37.9401,145.0083,19949,,31.5,0,1683.666666667,8938.666666667,509.333333
ID141366582,13 George St,PRESTON,722000.0,h,13/08/2016,2,1.0,1.0,400.0,64.0,-37.7352,144.9852,20012,,28.3,1,659.0,5219.333333333,338.333333
ID568058763,1/13 Narong Rd,CAULFIELD NORTH,536000.0,u,25/02/2017,2,1.0,1.0,771.0,59.0,-37.8686,145.0239,19944,,20.8,0,1593.333333333,6648.333333333,530.0
ID827919330,15 Kingshott Cl,WILLIAMSTOWN,1500000.0,h,29/04/2017,4,3.0,2.0,450.0,13.0,-37.8617,144.8786,19993,,20.8571,0,1064.666666667,4200.666666667,432.666667
ID706744058,13 Whitby St,RESERVOIR,767000.0,h,19/11/2016,3,1.0,2.0,561.0,69.0,-37.7098,145.0031,20009,,35.2222,0,824.666666667,1890.333333333,159.333333
ID651797588,38 Edinburgh St,BENTLEIGH EAST,1270000.0,h,4/03/2017,4,2.0,1.0,0.0,59.0,-37.9174,145.0717,19917,,29.3548,0,959.0,4476.666666667,324.0
ID688977499,73 Barkly St,BRUNSWICK EAST,1265000.0,h,27/05/2017,3,1.0,0.0,161.0,99.0,-37.77742,144.97388,19969,,24.3333,0,817.666666667,1779.666666667,181.0
ID364860937,14 Hedderwick St,BALWYN NORTH,1550000.0,h,18/06/2016,4,3.0,4.0,707.0,5.0,-37.8005,145.0986,19896,,28.7692,0,925.666666667,4701.333333333,308.666667
ID530775681,22 Hickford St,BRUNSWICK EAST,1283000.0,h,13/05/2017,2,1.0,1.0,263.0,109.0,-37.7661,144.9742,19968,,25.3333,0,817.666666667,1779.666666667,181.0
ID177305470,55 Rennie St,THORNBURY,1205500.0,h,17/06/2017,2,1.0,1.0,361.0,9.0,-37.75309,144.98908,20014,,25.3,0,2532.333333333,5455.0,713.0
ID498250449,2/43 Roxburgh St,ASCOT VALE,455000.0,u,3/09/2016,2,1.0,2.0,0.0,39.0,-37.7756,144.9165,20039,,20.0,0,2489.666666667,11817.333333333,1268.666667
ID694497619,14 Baker St,SUNSHINE,700000.0,h,30/07/2016,4,1.0,5.0,650.0,59.0,-37.7867,144.8437,20021,,24.0,0,1363.666666667,6287.666666667,564.333333
ID463823170,545 Whitehorse Rd,SURREY HILLS,2450000.0,h,27/06/2016,5,4.0,2.0,1076.0,99.0,-37.8141,145.0936,19896,,28.7692,0,2403.666666667,5212.333333333,586.666667
ID657051779,41/106 Southbank Bvd,SOUTHBANK,720000.0,u,3/09/2016,3,1.0,1.0,0.0,26.0,-37.8235,144.9655,22238,,3.5,0,1100.666666667,3636.333333333,457.333333
ID817422310,49 Metherall St,SUNSHINE NORTH,605000.0,h,10/12/2016,5,2.0,2.0,661.0,59.0,-37.7651,144.8241,20004,,26.375,0,1363.666666667,6287.666666667,564.333333
ID234813201,6/29 Barkly St,BOX HILL,645000.0,u,4/03/2017,2,1.0,1.0,140.0,54.0,-37.8271,145.1299,20042,,25.7179,0,2897.333333333,11243.0,942.0
ID609645574,57 Newton St,RESERVOIR,866000.0,h,24/09/2016,3,1.0,2.0,569.0,49.0,-37.7313,145.0224,20011,,31.2,1,824.666666667,1890.333333333,159.333333
ID438511905,24 Sadie St,GLENROY,793000.0,h,12/11/2016,3,1.0,2.0,780.0,59.0,-37.7,144.9427,19961,,39.0,0,1683.666666667,8938.666666667,509.333333
ID921970064,3/20 Burns St,MAIDSTONE,520000.0,u,10/12/2016,3,2.0,2.0,184.0,99.0,-37.7868,144.8772,20023,,19.4,0,610.0,1743.666666667,228.0
ID925802640,100 McIntyre Rd,SUNSHINE NORTH,490000.0,h,4/06/2016,3,1.0,2.0,541.0,79.0,-37.7669,144.8308,20004,,26.375,0,1363.666666667,6287.666666667,564.333333
ID493623857,43 Green Av,KINGSBURY,740000.0,h,15/07/2017,3,1.0,2.0,633.0,44.0,-37.71402,145.0314,20009,,35.2222,0,92.333333333,260.0,36.666667
ID406731324,6/5 Murrell St,GLENROY,420000.0,t,6/05/2017,2,2.0,1.0,1137.0,10.0,-37.7045,144.9204,20032,,36.0,0,1841.666666667,9184.666666667,533.333333
ID981929938,161 Church St,BRIGHTON,5800000.0,h,8/04/2017,5,4.0,4.0,1276.0,139.0,-37.9164,144.9974,19951,,26.5,0,2897.333333333,11243.0,942.0
ID862381057,16 Pine St,HAWTHORN,1712000.0,h,12/11/2016,3,1.0,1.0,342.0,119.0,-37.814,145.0212,19905,,13.9524,0,1150.666666667,7827.0,922.333333
ID532037123,124 Yarra St,ABBOTSFORD,1876000.0,h,7/05/2016,3,2.0,0.0,245.0,109.0,-37.8024,144.9993,19976,,12.2353,0,1202.0,5034.333333333,333.0
ID138885407,2/92 Clarence St,CAULFIELD SOUTH,1000000.0,t,13/05/2017,3,2.0,2.0,265.0,8.0,-37.8924,145.0154,19953,,23.5,0,1593.333333333,6648.333333333,530.0
ID270461654,21A Cosmos St,GLENROY,577000.0,h,18/03/2017,3,1.0,2.0,706.0,49.0,-37.7053,144.9372,20032,,36.0,0,1841.666666667,9184.666666667,533.333333
ID375299421,18 Inglis St,WILLIAMSTOWN NORTH,1225000.0,h,27/11/2016,3,1.0,1.0,311.0,99.0,-37.8546,144.8762,19993,,20.8571,0,1002.666666667,4068.0,328.333333
ID771889368,15 New St,BORONIA,770000.0,h,29/07/2017,4,2.0,2.0,723.0,49.0,-37.8476,145.29493,19869,,48.1818,0,59.0,124.0,5.333333
ID840356946,32 Howie St,GLEN IRIS,1751000.0,h,25/02/2017,3,1.0,3.0,609.0,89.0,-37.8542,145.0733,19849,,28.6667,0,2047.666666667,9171.0,742.333333
ID453514119,1 Griffiths St,RICHMOND,1105000.0,h,22/08/2016,2,2.0,1.0,55.0,26.0,-37.8159,145.0033,19978,,9.125,0,824.666666667,1890.333333333,159.333333
ID918620741,3 Ikara Cl,KINGS PARK,560000.0,h,26/08/2017,3,1.0,1.0,565.0,49.0,-37.73574,144.77898000000005,20001,,34.375,0,1360.666666667,6408.666666667,691.666667
ID135045156,12 Gurner St,ST KILDA,1900000.0,h,12/11/2016,4,2.0,2.0,507.0,129.0,-37.8616,144.9807,19957,,15.5,0,1363.666666667,6287.666666667,564.333333
ID631553885,46 Buckmaster Dr,MILL PARK,775500.0,h,15/07/2017,3,1.0,4.0,840.0,39.0,-37.66919,145.06798999999995,45795,,49.25,0,1508.333333333,6073.0,553.666667
ID622368038,14 Clydebank Rd,ESSENDON WEST,810000.0,h,3/12/2016,3,1.0,2.0,613.0,89.0,-37.7552,144.8882,20037,,24.0,0,1144.333333333,6845.666666667,375.666667
ID124778314,2/3 Eldridge St,FOOTSCRAY,216000.0,u,4/02/2016,1,1.0,1.0,0.0,49.0,-37.7907,144.8924,20024,,17.4,0,1923.666666667,8979.333333333,620.333333
ID932408034,43 Omar St,MAIDSTONE,915000.0,h,17/09/2016,3,1.0,3.0,667.0,7.0,-37.7784,144.8708,20022,,21.4,0,610.0,1743.666666667,228.0
ID969480019,30 Browns Rd,BENTLEIGH EAST,772500.0,u,27/06/2016,2,1.0,2.0,318.0,14.0,-37.9218,145.0563,19939,,35.0833,1,925.666666667,4701.333333333,308.666667
ID604708132,59 Hope St,SPOTSWOOD,871500.0,h,28/08/2016,4,2.0,0.0,389.0,29.0,-37.8284,144.8861,19995,,14.3571,0,1100.666666667,3636.333333333,457.333333
ID716760971,17 Kathleen Gr,BULLEEN,1063000.0,h,28/05/2016,3,1.0,2.0,602.0,54.0,-37.7712,145.097,19935,,29.8235,0,958.666666667,5673.0,628.0
ID472256222,55 Bennett St,ALPHINGTON,1975000.0,h,20/05/2017,4,2.0,2.0,600.0,52.0,-37.771,145.0318,19932,,26.0,0,1214.666666667,5603.666666667,375.333333
ID858787221,19 Bruce St,PRESTON,1270000.0,h,12/08/2017,3,2.0,2.0,585.0,19.0,-37.74251,145.0008,20013,,26.3,0,705.333333333,5479.666666667,335.0
ID923112970,84 May St,ALTONA NORTH,970000.0,h,25/02/2017,4,1.0,2.0,708.0,59.0,-37.833,144.8494,19994,,16.3103,0,2494.666666667,11307.0,1410.0
ID124669321,5 Kennedy St,BENTLEIGH EAST,1475000.0,h,17/09/2016,5,2.0,2.0,729.0,9.0,-37.9191,145.075,19917,,29.3548,0,925.666666667,4701.333333333,308.666667
ID453726196,45 Stanley St,GLENROY,852500.0,h,6/08/2016,2,1.0,2.0,832.0,9.0,-37.7126,144.9122,20032,,36.0,0,1683.666666667,8938.666666667,509.333333
ID840303329,13 Dyer Ct,CLARINDA,883300.0,h,19/08/2017,5,2.0,2.0,402.0,39.0,-37.94452,145.11108000000004,22249,,33.6667,0,52.333333333,131.333333333,10.333333
